start=new Date('2022-12-04T00:00:00.000Z').valueOf();
sats=[{"ARG_OF_PERICENTER":"64.9635","EPHEMERIS_TYPE":"0","ELEMENT_SET_NO":"999","MEAN_ANOMALY":"295.1735","OBJECT_TYPE":"PAYLOAD","EPOCH":"2022-12-03T15:54:12.070080","MEAN_MOTION_DDOT":"0.0000000000000","MEAN_ELEMENT_THEORY":"SGP4","TIME_SYSTEM":"UTC","OBJECT_ID":"2022-084AC","INCLINATION":"97.6572","RA_OF_ASC_NODE":"36.5097","SEMIMAJOR_AXIS":"6941.123","CENTER_NAME":"EARTH","OBJECT_NAME":"STARLINK-4335","MEAN_MOTION":"15.01267774","PERIOD":"95.919","REF_FRAME":"TEME","PERIAPSIS":"562.008","MEAN_MOTION_DOT":"0.00001559","DECAY_DATE":null,"ECCENTRICITY":"0.00014120","LAUNCH_DATE":"2022-07-22","TLE_LINE2":"2 53215  97.6572  36.5097 0001412  64.9635 295.1735 15.01267774 20997","FILE":"3680595","BSTAR":"0.00012589000000","APOAPSIS":"563.968","REV_AT_EPOCH":"2099","COUNTRY_CODE":"US","CLASSIFICATION_TYPE":"U","RCS_SIZE":"LARGE","SITE":"AFWTR","NORAD_CAT_ID":"53215","TLE_LINE1":"1 53215U 22084AC  22337.66263970  .00001559  00000-0  12589-3 0  9996","GP_ID":"219481782"},{"OBJECT_TYPE":"PAYLOAD","EPOCH":"2022-12-03T16:02:12.731424","MEAN_MOTION_DDOT":"0.0000000000000","MEAN_ELEMENT_THEORY":"SGP4","OBJECT_ID":"2022-084AD","TIME_SYSTEM":"UTC","INCLINATION":"97.6568","RA_OF_ASC_NODE":"36.5146","CENTER_NAME":"EARTH","SEMIMAJOR_AXIS":"6941.149","ARG_OF_PERICENTER":"127.1429","EPHEMERIS_TYPE":"0","ELEMENT_SET_NO":"999","MEAN_ANOMALY":"232.9895","ECCENTRICITY":"0.00010990","DECAY_DATE":null,"BSTAR":"-0.00004192500000","TLE_LINE2":"2 53216  97.6568  36.5146 0001099 127.1429 232.9895 15.01259434 20475","FILE":"3680595","LAUNCH_DATE":"2022-07-22","REV_AT_EPOCH":"2047","APOAPSIS":"563.776","COUNTRY_CODE":"US","RCS_SIZE":"LARGE","CLASSIFICATION_TYPE":"U","SITE":"AFWTR","NORAD_CAT_ID":"53216","TLE_LINE1":"1 53216U 22084AD  22337.66820291 -.00000597  00000-0 -41925-4 0  9992","GP_ID":"219482356","OBJECT_NAME":"STARLINK-4376","MEAN_MOTION":"15.01259434","PERIOD":"95.919","REF_FRAME":"TEME","PERIAPSIS":"562.251","MEAN_MOTION_DOT":"-0.00000597"},{"GP_ID":"219482547","NORAD_CAT_ID":"53217","SITE":"AFWTR","TLE_LINE1":"1 53217U 22084AE  22337.65918699  .00002137  00000-0  17091-3 0  9998","CLASSIFICATION_TYPE":"U","RCS_SIZE":"LARGE","COUNTRY_CODE":"US","TLE_LINE2":"2 53217  97.6589  36.5104 0001405  33.6663 326.4650 15.01265407 20470","BSTAR":"0.00017091000000","FILE":"3680595","LAUNCH_DATE":"2022-07-22","DECAY_DATE":null,"ECCENTRICITY":"0.00014050","REV_AT_EPOCH":"2047","APOAPSIS":"563.970","PERIAPSIS":"562.020","MEAN_MOTION_DOT":"0.00002137","REF_FRAME":"TEME","PERIOD":"95.919","MEAN_MOTION":"15.01265407","OBJECT_NAME":"STARLINK-4379","CENTER_NAME":"EARTH","SEMIMAJOR_AXIS":"6941.130","INCLINATION":"97.6589","TIME_SYSTEM":"UTC","OBJECT_ID":"2022-084AE","RA_OF_ASC_NODE":"36.5104","MEAN_ELEMENT_THEORY":"SGP4","MEAN_MOTION_DDOT":"0.0000000000000","OBJECT_TYPE":"PAYLOAD","EPOCH":"2022-12-03T15:49:13.755936","MEAN_ANOMALY":"326.4650","ELEMENT_SET_NO":"999","ARG_OF_PERICENTER":"33.6663","EPHEMERIS_TYPE":"0"},{"MEAN_ANOMALY":"254.7549","ELEMENT_SET_NO":"999","ARG_OF_PERICENTER":"105.3811","EPHEMERIS_TYPE":"0","SEMIMAJOR_AXIS":"6941.151","CENTER_NAME":"EARTH","INCLINATION":"97.6575","OBJECT_ID":"2022-084AF","TIME_SYSTEM":"UTC","RA_OF_ASC_NODE":"36.5127","MEAN_ELEMENT_THEORY":"SGP4","MEAN_MOTION_DDOT":"0.0000000000000","EPOCH":"2022-12-03T15:59:32.401536","OBJECT_TYPE":"PAYLOAD","PERIAPSIS":"562.162","MEAN_MOTION_DOT":"-0.00000247","REF_FRAME":"TEME","PERIOD":"95.920","MEAN_MOTION":"15.01258796","OBJECT_NAME":"STARLINK-4384","GP_ID":"219482733","NORAD_CAT_ID":"53218","SITE":"AFWTR","TLE_LINE1":"1 53218U 22084AF  22337.66634724 -.00000247  00000-0 -14653-4 0  9998","RCS_SIZE":"LARGE","CLASSIFICATION_TYPE":"U","COUNTRY_CODE":"US","TLE_LINE2":"2 53218  97.6575  36.5127 0001229 105.3811 254.7549 15.01258796 20997","BSTAR":"-0.00001465300000","FILE":"3680595","LAUNCH_DATE":"2022-07-22","DECAY_DATE":null,"ECCENTRICITY":"0.00012290","APOAPSIS":"563.869","REV_AT_EPOCH":"2099"},{"REV_AT_EPOCH":"2047","APOAPSIS":"564.291","FILE":"3680595","TLE_LINE2":"2 53219  97.6609  36.5161 0001897  39.5271 320.6091 15.01272118 20475","LAUNCH_DATE":"2022-07-22","BSTAR":"0.00009010400000","DECAY_DATE":null,"ECCENTRICITY":"0.00018970","CLASSIFICATION_TYPE":"U","RCS_SIZE":"LARGE","COUNTRY_CODE":"US","TLE_LINE1":"1 53219U 22084AG  22337.65523280  .00001099  00000-0  90104-4 0  9991","NORAD_CAT_ID":"53219","SITE":"AFWTR","GP_ID":"219482169","OBJECT_NAME":"STARLINK-4373","MEAN_MOTION":"15.01272118","REF_FRAME":"TEME","PERIOD":"95.919","MEAN_MOTION_DOT":"0.00001099","PERIAPSIS":"561.658","MEAN_MOTION_DDOT":"0.0000000000000","EPOCH":"2022-12-03T15:43:32.113920","OBJECT_TYPE":"PAYLOAD","MEAN_ELEMENT_THEORY":"SGP4","RA_OF_ASC_NODE":"36.5161","INCLINATION":"97.6609","OBJECT_ID":"2022-084AG","TIME_SYSTEM":"UTC","CENTER_NAME":"EARTH","SEMIMAJOR_AXIS":"6941.109","EPHEMERIS_TYPE":"0","ARG_OF_PERICENTER":"39.5271","ELEMENT_SET_NO":"999","MEAN_ANOMALY":"320.6091"},{"PERIAPSIS":"561.718","MEAN_MOTION_DOT":"-0.00001812","REF_FRAME":"TEME","PERIOD":"95.919","MEAN_MOTION":"15.01263017","OBJECT_NAME":"STARLINK-4363","GP_ID":"219481970","NORAD_CAT_ID":"53220","SITE":"AFWTR","TLE_LINE1":"1 53220U 22084AH  22337.66079485 -.00001812  00000-0 -13648-3 0  9999","CLASSIFICATION_TYPE":"U","RCS_SIZE":"LARGE","COUNTRY_CODE":"US","TLE_LINE2":"2 53220  97.6588  36.5116 0001851  88.8126 271.3310 15.01263017 20990","FILE":"3680595","LAUNCH_DATE":"2022-07-22","BSTAR":"-0.00013648000000","DECAY_DATE":null,"ECCENTRICITY":"0.00018510","APOAPSIS":"564.287","REV_AT_EPOCH":"2099","MEAN_ANOMALY":"271.3310","ELEMENT_SET_NO":"999","EPHEMERIS_TYPE":"0","ARG_OF_PERICENTER":"88.8126","SEMIMAJOR_AXIS":"6941.138","CENTER_NAME":"EARTH","INCLINATION":"97.6588","OBJECT_ID":"2022-084AH","TIME_SYSTEM":"UTC","RA_OF_ASC_NODE":"36.5116","MEAN_ELEMENT_THEORY":"SGP4","MEAN_MOTION_DDOT":"0.0000000000000","EPOCH":"2022-12-03T15:51:32.675040","OBJECT_TYPE":"PAYLOAD"},{"EPHEMERIS_TYPE":"0","ARG_OF_PERICENTER":"36.1735","ELEMENT_SET_NO":"999","MEAN_ANOMALY":"323.9615","EPOCH":"2022-12-03T15:40:52.782816","OBJECT_TYPE":"PAYLOAD","MEAN_MOTION_DDOT":"0.0000000000000","MEAN_ELEMENT_THEORY":"SGP4","OBJECT_ID":"2022-084AJ","TIME_SYSTEM":"UTC","INCLINATION":"97.6600","RA_OF_ASC_NODE":"36.5213","SEMIMAJOR_AXIS":"6941.131","CENTER_NAME":"EARTH","OBJECT_NAME":"STARLINK-4377","MEAN_MOTION":"15.01265261","PERIOD":"95.919","REF_FRAME":"TEME","PERIAPSIS":"561.702","MEAN_MOTION_DOT":"0.00000878","ECCENTRICITY":"0.00018630","DECAY_DATE":null,"FILE":"3680595","TLE_LINE2":"2 53221  97.6600  36.5213 0001863  36.1735 323.9615 15.01265261 20477","BSTAR":"0.00007293300000","LAUNCH_DATE":"2022-07-22","REV_AT_EPOCH":"2047","APOAPSIS":"564.289","COUNTRY_CODE":"US","CLASSIFICATION_TYPE":"U","RCS_SIZE":"LARGE","SITE":"AFWTR","NORAD_CAT_ID":"53221","TLE_LINE1":"1 53221U 22084AJ  22337.65338869  .00000878  00000-0  72933-4 0  9995","GP_ID":"219482924"},{"OBJECT_NAME":"STARLINK-4381","MEAN_MOTION":"15.01261345","PERIOD":"95.919","REF_FRAME":"TEME","PERIAPSIS":"561.853","MEAN_MOTION_DOT":"0.00001542","ECCENTRICITY":"0.00016640","DECAY_DATE":null,"TLE_LINE2":"2 53222  97.6590  36.5088 0001664  58.0545 302.0841 15.01261345 20475","LAUNCH_DATE":"2022-07-22","FILE":"3680595","BSTAR":"0.00012464000000","APOAPSIS":"564.163","REV_AT_EPOCH":"2047","COUNTRY_CODE":"US","CLASSIFICATION_TYPE":"U","RCS_SIZE":"LARGE","SITE":"AFWTR","NORAD_CAT_ID":"53222","TLE_LINE1":"1 53222U 22084AK  22337.65894083  .00001542  00000-0  12464-3 0  9992","GP_ID":"219483111","EPHEMERIS_TYPE":"0","ARG_OF_PERICENTER":"58.0545","ELEMENT_SET_NO":"999","MEAN_ANOMALY":"302.0841","EPOCH":"2022-12-03T15:48:52.487712","OBJECT_TYPE":"PAYLOAD","MEAN_MOTION_DDOT":"0.0000000000000","MEAN_ELEMENT_THEORY":"SGP4","OBJECT_ID":"2022-084AK","TIME_SYSTEM":"UTC","INCLINATION":"97.6590","RA_OF_ASC_NODE":"36.5088","SEMIMAJOR_AXIS":"6941.143","CENTER_NAME":"EARTH"},{"GP_ID":"219481783","TLE_LINE1":"1 53223U 22084AL  22337.65155932  .00000330  00000-0  30276-4 0  9992","SITE":"AFWTR","NORAD_CAT_ID":"53223","COUNTRY_CODE":"US","RCS_SIZE":"LARGE","CLASSIFICATION_TYPE":"U","APOAPSIS":"564.458","REV_AT_EPOCH":"2047","DECAY_DATE":null,"ECCENTRICITY":"0.00020190","TLE_LINE2":"2 53223  97.6593  36.5208 0002019  23.9072 336.2246 15.01245577 20471","FILE":"3680595","BSTAR":"0.00003027600000","LAUNCH_DATE":"2022-07-22","MEAN_MOTION_DOT":"0.00000330","PERIAPSIS":"561.655","PERIOD":"95.920","REF_FRAME":"TEME","MEAN_MOTION":"15.01245577","OBJECT_NAME":"STARLINK-4354","SEMIMAJOR_AXIS":"6941.191","CENTER_NAME":"EARTH","RA_OF_ASC_NODE":"36.5208","TIME_SYSTEM":"UTC","OBJECT_ID":"2022-084AL","INCLINATION":"97.6593","MEAN_ELEMENT_THEORY":"SGP4","OBJECT_TYPE":"PAYLOAD","EPOCH":"2022-12-03T15:38:14.725248","MEAN_MOTION_DDOT":"0.0000000000000","MEAN_ANOMALY":"336.2246","ELEMENT_SET_NO":"999","EPHEMERIS_TYPE":"0","ARG_OF_PERICENTER":"23.9072"},{"ARG_OF_PERICENTER":"56.9398","EPHEMERIS_TYPE":"0","ELEMENT_SET_NO":"999","MEAN_ANOMALY":"303.1993","MEAN_MOTION_DDOT":"0.0000000000000","EPOCH":"2022-12-03T15:46:12.658944","OBJECT_TYPE":"PAYLOAD","MEAN_ELEMENT_THEORY":"SGP4","RA_OF_ASC_NODE":"36.5122","INCLINATION":"97.6608","TIME_SYSTEM":"UTC","OBJECT_ID":"2022-084AM","CENTER_NAME":"EARTH","SEMIMAJOR_AXIS":"6941.146","OBJECT_NAME":"STARLINK-4356","MEAN_MOTION":"15.01260437","REF_FRAME":"TEME","PERIOD":"95.919","MEAN_MOTION_DOT":"0.00000848","PERIAPSIS":"561.803","REV_AT_EPOCH":"2047","APOAPSIS":"564.218","FILE":"3680595","TLE_LINE2":"2 53224  97.6608  36.5122 0001740  56.9398 303.1993 15.01260437 20475","LAUNCH_DATE":"2022-07-22","BSTAR":"0.00007062700000","DECAY_DATE":null,"ECCENTRICITY":"0.00017400","RCS_SIZE":"LARGE","CLASSIFICATION_TYPE":"U","COUNTRY_CODE":"US","TLE_LINE1":"1 53224U 22084AM  22337.65709096  .00000848  00000-0  70627-4 0  9997","NORAD_CAT_ID":"53224","SITE":"AFWTR","GP_ID":"219482357"}];
